CCSDS_OMM_VERS = 2.0
CREATION_DATE  = 
ORIGINATOR     = 

OBJECT_NAME    = ISS OBJECT XX
OBJECT_ID      = 1998-067XX
CENTER_NAME    = EARTH
REF_FRAME      = TEME
TIME_SYSTEM    = UTC
MEAN_ELEMENT_THEORY = SGP/SGP4

EPOCH          = 2026-03-08T08:58:48.638784
MEAN_MOTION    = 15.74644614
ECCENTRICITY   = .0007014
INCLINATION    = 51.6209
RA_OF_ASC_NODE = 70.8388
ARG_OF_PERICENTER = 74.5772
MEAN_ANOMALY   = 285.6002

EPHEMERIS_TYPE = 0
CLASSIFICATION_TYPE = U
NORAD_CAT_ID   = 66911
ELEMENT_SET_NO = 999
REV_AT_EPOCH   = 1498
BSTAR          = .21777E-2
MEAN_MOTION_DOT = .338925E-2
MEAN_MOTION_DDOT = 0

CCSDS_OMM_VERS = 2.0
CREATION_DATE  = 
ORIGINATOR     = 

OBJECT_NAME    = ISS OBJECT XY
OBJECT_ID      = 1998-067XY
CENTER_NAME    = EARTH
REF_FRAME      = TEME
TIME_SYSTEM    = UTC
MEAN_ELEMENT_THEORY = SGP/SGP4

EPOCH          = 2026-03-08T05:44:44.166048
MEAN_MOTION    = 15.63375791
ECCENTRICITY   = .0003151
INCLINATION    = 51.6269
RA_OF_ASC_NODE = 74.4704
ARG_OF_PERICENTER = 80.3151
MEAN_ANOMALY   = 279.8199

EPHEMERIS_TYPE = 0
CLASSIFICATION_TYPE = U
NORAD_CAT_ID   = 66912
ELEMENT_SET_NO = 999
REV_AT_EPOCH   = 1492
BSTAR          = .13699E-2
MEAN_MOTION_DOT = .130266E-2
MEAN_MOTION_DDOT = 0

CCSDS_OMM_VERS = 2.0
CREATION_DATE  = 
ORIGINATOR     = 

OBJECT_NAME    = ISS OBJECT XZ
OBJECT_ID      = 1998-067XZ
CENTER_NAME    = EARTH
REF_FRAME      = TEME
TIME_SYSTEM    = UTC
MEAN_ELEMENT_THEORY = SGP/SGP4

EPOCH          = 2026-03-08T05:54:51.044832
MEAN_MOTION    = 15.51696524
ECCENTRICITY   = .0009422
INCLINATION    = 51.6305
RA_OF_ASC_NODE = 79.0203
ARG_OF_PERICENTER = 180.7237
MEAN_ANOMALY   = 179.3740

EPHEMERIS_TYPE = 0
CLASSIFICATION_TYPE = U
NORAD_CAT_ID   = 67683
ELEMENT_SET_NO = 999
REV_AT_EPOCH   = 456
BSTAR          = .89298E-3
MEAN_MOTION_DOT = .54128E-3
MEAN_MOTION_DDOT = 0

CCSDS_OMM_VERS = 2.0
CREATION_DATE  = 
ORIGINATOR     = 

OBJECT_NAME    = GXIBA-1
OBJECT_ID      = 1998-067YA
CENTER_NAME    = EARTH
REF_FRAME      = TEME
TIME_SYSTEM    = UTC
MEAN_ELEMENT_THEORY = SGP/SGP4

EPOCH          = 2026-03-08T06:51:27.091872
MEAN_MOTION    = 15.54070328
ECCENTRICITY   = .0010947
INCLINATION    = 51.6303
RA_OF_ASC_NODE = 78.5330
ARG_OF_PERICENTER = 170.9783
MEAN_ANOMALY   = 189.1406

EPHEMERIS_TYPE = 0
CLASSIFICATION_TYPE = U
NORAD_CAT_ID   = 67684
ELEMENT_SET_NO = 999
REV_AT_EPOCH   = 457
BSTAR          = .16924E-2
MEAN_MOTION_DOT = .113172E-2
MEAN_MOTION_DDOT = 0

CCSDS_OMM_VERS = 2.0
CREATION_DATE  = 
ORIGINATOR     = 

OBJECT_NAME    = CORAL
OBJECT_ID      = 1998-067YB
CENTER_NAME    = EARTH
REF_FRAME      = TEME
TIME_SYSTEM    = UTC
MEAN_ELEMENT_THEORY = SGP/SGP4

EPOCH          = 2026-03-08T07:21:39.782880
MEAN_MOTION    = 15.52048889
ECCENTRICITY   = .0011338
INCLINATION    = 51.6307
RA_OF_ASC_NODE = 78.6725
ARG_OF_PERICENTER = 177.8497
MEAN_ANOMALY   = 182.2543

EPHEMERIS_TYPE = 0
CLASSIFICATION_TYPE = U
NORAD_CAT_ID   = 67685
ELEMENT_SET_NO = 999
REV_AT_EPOCH   = 457
BSTAR          = .10253E-2
MEAN_MOTION_DOT = .63136E-3
MEAN_MOTION_DDOT = 0

CCSDS_OMM_VERS = 2.0
CREATION_DATE  = 
ORIGINATOR     = 

OBJECT_NAME    = ISS OBJECT YC
OBJECT_ID      = 1998-067YC
CENTER_NAME    = EARTH
REF_FRAME      = TEME
TIME_SYSTEM    = UTC
MEAN_ELEMENT_THEORY = SGP/SGP4

EPOCH          = 2026-03-08T11:52:26.900256
MEAN_MOTION    = 15.52582008
ECCENTRICITY   = .0007926
INCLINATION    = 51.6310
RA_OF_ASC_NODE = 77.6801
ARG_OF_PERICENTER = 145.9342
MEAN_ANOMALY   = 214.2158

EPHEMERIS_TYPE = 0
CLASSIFICATION_TYPE = U
NORAD_CAT_ID   = 67686
ELEMENT_SET_NO = 999
REV_AT_EPOCH   = 460
BSTAR          = .11105E-2
MEAN_MOTION_DOT = .69722E-3
MEAN_MOTION_DDOT = 0

CCSDS_OMM_VERS = 2.0
CREATION_DATE  = 
ORIGINATOR     = 

OBJECT_NAME    = LEOPARD
OBJECT_ID      = 1998-067YD
CENTER_NAME    = EARTH
REF_FRAME      = TEME
TIME_SYSTEM    = UTC
MEAN_ELEMENT_THEORY = SGP/SGP4

EPOCH          = 2026-03-08T07:24:26.871840
MEAN_MOTION    = 15.51875609
ECCENTRICITY   = .0007824
INCLINATION    = 51.6314
RA_OF_ASC_NODE = 78.6871
ARG_OF_PERICENTER = 149.3707
MEAN_ANOMALY   = 210.7740

EPHEMERIS_TYPE = 0
CLASSIFICATION_TYPE = U
NORAD_CAT_ID   = 67687
ELEMENT_SET_NO = 999
REV_AT_EPOCH   = 449
BSTAR          = .96299E-3
MEAN_MOTION_DOT = .58789E-3
MEAN_MOTION_DDOT = 0

CCSDS_OMM_VERS = 2.0
CREATION_DATE  = 
ORIGINATOR     = 

OBJECT_NAME    = ISS OBJECT YE
OBJECT_ID      = 1998-067YE
CENTER_NAME    = EARTH
REF_FRAME      = TEME
TIME_SYSTEM    = UTC
MEAN_ELEMENT_THEORY = SGP/SGP4

EPOCH          = 2026-03-08T11:55:46.213824
MEAN_MOTION    = 15.52342868
ECCENTRICITY   = .0007867
INCLINATION    = 51.6311
RA_OF_ASC_NODE = 77.6953
ARG_OF_PERICENTER = 146.9330
MEAN_ANOMALY   = 213.2153

EPHEMERIS_TYPE = 0
CLASSIFICATION_TYPE = U
NORAD_CAT_ID   = 67688
ELEMENT_SET_NO = 999
REV_AT_EPOCH   = 452
BSTAR          = .10466E-2
MEAN_MOTION_DOT = .65076E-3
MEAN_MOTION_DDOT = 0

CCSDS_OMM_VERS = 2.0
CREATION_DATE  = 
ORIGINATOR     = 

OBJECT_NAME    = CREW DRAGON 12
OBJECT_ID      = 2026-031A
CENTER_NAME    = EARTH
REF_FRAME      = TEME
TIME_SYSTEM    = UTC
MEAN_ELEMENT_THEORY = SGP/SGP4

EPOCH          = 2026-03-08T09:59:22.308288
MEAN_MOTION    = 15.48526204
ECCENTRICITY   = .0008065
INCLINATION    = 51.6319
RA_OF_ASC_NODE = 78.6521
ARG_OF_PERICENTER = 170.0958
MEAN_ANOMALY   = 190.0190

EPHEMERIS_TYPE = 0
CLASSIFICATION_TYPE = U
NORAD_CAT_ID   = 67796
ELEMENT_SET_NO = 999
REV_AT_EPOCH   = 55602
BSTAR          = .21617E-3
MEAN_MOTION_DOT = .11291E-3
MEAN_MOTION_DDOT = 0

