ISS OBJECT XX           
1 66911U 98067XX  26067.37417406  .00338925  00000+0  21777-2 0  9991
2 66911  51.6209  70.8388 0007014  74.5772 285.6002 15.74644614 14983
ISS OBJECT XY           
1 66912U 98067XY  26067.23940007  .00130266  00000+0  13699-2 0  9997
2 66912  51.6269  74.4704 0003151  80.3151 279.8199 15.63375791 14927
ISS OBJECT XZ           
1 67683U 98067XZ  26067.24642413  .00054128  00000+0  89298-3 0  9995
2 67683  51.6305  79.0203 0009422 180.7237 179.3740 15.51696524  4568
GXIBA-1                 
1 67684U 98067YA  26067.28573023  .00113172  00000+0  16924-2 0  9990
2 67684  51.6303  78.5330 0010947 170.9783 189.1406 15.54070328  4573
CORAL                   
1 67685U 98067YB  26067.30671045  .00063136  00000+0  10253-2 0  9990
2 67685  51.6307  78.6725 0011338 177.8497 182.2543 15.52048889  4571
ISS OBJECT YC           
1 67686U 98067YC  26067.49475579  .00069722  00000+0  11105-2 0  9999
2 67686  51.6310  77.6801 0007926 145.9342 214.2158 15.52582008  4601
LEOPARD                 
1 67687U 98067YD  26067.30864435  .00058789  00000+0  96299-3 0  9992
2 67687  51.6314  78.6871 0007824 149.3707 210.7740 15.51875609  4490
ISS OBJECT YE           
1 67688U 98067YE  26067.49706266  .00065076  00000+0  10466-2 0  9998
2 67688  51.6311  77.6953 0007867 146.9330 213.2153 15.52342868  4527
CREW DRAGON 12          
1 67796U 26031A   26067.41623042  .00011291  00000+0  21617-3 0  9993
2 67796  51.6319  78.6521 0008065 170.0958 190.0190 15.48526204556025
